student_name,street_address,city,country
Hugo O'Reilly,227 Petra Lodge,North Alberta,Panama
Mr. Eduardo Pacocha PhD,69101 Beech Grove,Vandervortfort,Jordan
Mr. Roman Reichel,9100 Graham Flat,Roybury,Colombia
Glenda Streich,55327 Leannon Lane,Fort Ida,Republic of Korea
Emilio Swift,785 Sabryna Throughway,Lake Cielo,Bhutan
Nicole Gorczany,61167 Gideon Shoals,Ryleymouth,Moldova
Ms. Shannon Lemke,1506 Deron Courts,East Merlport,Central African Republic
Mr. Mack Rodriguez,7374 Rice Underpass,West Aylinville,Aruba
Mrs. Bernice Barrows,3128 Hackett Brook,Wallacefield,Saint Kitts and Nevis
Homer Volkman,780 Corkery Corners,West Mekhiborough,Djibouti
Brent Bednar MD,216 E 6th Street,Kalamazoo,Jamaica
Harvey Johnson,79146 Conn Forges,South Derrickworth,Cook Islands
Lucia Romaguera,1687 Natalia Cape,Quitzonberg,Myanmar
Jeffrey Schuppe,2288 Shanelle Parkway,Port Shanelberg,Austria
Thelma Pollich,1326 E 8th Street,Libbyville,Curacao
Amanda Gutmann,3811 S High Street,Moline,Spain
Dr. Jamie Hintz,6600 Gutkowski Key,Nayeliville,North Macedonia
Elisa Funk I,829 Geovanny Lights,Lake Jaclynland,Ethiopia
Miss Louise Dibbert-Wiegand,1496 N 5th Street,Hickleberg,Democratic People's Republic of Korea
Ora Weissnat PhD,70177 W 10th Street,North Jessefort,Poland
Mrs. Eula Bashirian,3878 Raymond Ranch,West Babylon,Indonesia
Alonzo Larkin,5348 Josiane Shores,Sanford,Japan
Leo Morar,7840 Suzanne Grove,Fort Ricoport,Bahrain
Joy D'Amore,72985 Elm Road,Loyalland,Denmark
Kathy Effertz,38131 Franklin Road,South Kirkton,Trinidad and Tobago
Pete Bauch,83958 Birch Road,Virginia Beach,Morocco
Joy Leannon,72640 Walnut Street,Fort Sonyaville,Guernsey
Loretta Bergnaum,7176 Lilyan Cove,Deliaburgh,Jersey
Stephanie Braun,42402 Chestnut Close,New Gwen,Croatia
Douglas Kirlin MD,8229 The Lane,West Margot,Libyan Arab Jamahiriya
Belinda Stroman,4688 Leffler Forges,New Gretchen,Iraq
Shelly Kassulke,6261 Muller Freeway,South Vidalworth,Cameroon
Emilio Miller,188 Delaney Ridges,Fort Lonberg,United States Minor Outlying Islands
Leo Reichert,31421 E Broadway,New Vivianne,Saint Kitts and Nevis
Mark Quigley,119 Ozella Lake,Thornton,Turkmenistan
Ignacio Orn,547 Grove Road,Alessandramouth,Ecuador
Alfred Johnson,21923 Monahan Ridge,Lake Janessa,Bouvet Island
Darrell Ruecker,779 Janiya Rue,South Jovanny,Niger
Stewart Wilkinson,14788 S 1st Avenue,Fayetteville,Spain
Pearl O'Hara,90361 College Avenue,Kierahaven,Bangladesh
Grady Boyer,612 Kunze Divide,North Kamryn,Andorra
Alice Kris IV,204 The Grove,Anderson,Nauru
Mr. Louis Dare DVM,64558 Boehm Hollow,Fort Nolahaven,Tokelau
Christian Blanda,815 Braun Court,North Glenchester,Czechia
Mrs. Lori Paucek II,1105 Champlin Park,South Stan,Saint Martin
Miss Adrienne Mertz,45819 Jaunita Circles,Fort Magdalenabury,Falkland Islands (Malvinas)
Lorene Crist DDS,249 Littel Court,El Paso,Madagascar
Samantha Tremblay,990 Raymond Ridges,Strosinbury,Greece
Penny McGlynn,473 Easton Extension,Irvine,Sao Tome and Principe
Yvonne McLaughlin,929 Kenton Street,Wittingcester,Kenya